*******************************************************************************
JPL/HORIZONS                     (2022 YK6)                2025-Sep-17 16:41:30
Rec #:50550945 (+COV) Soln.date: 2023-Feb-09_04:51:18     # obs: 38 (2022-2023)
 
IAU76/J2000 helio. ecliptic osc. elements (au, days, deg., period=Julian yrs):
 
  EPOCH=  2459959.5 ! 2023-Jan-15.00 (TDB)         Residual RMS= .15137
   EC= .07207667289659908  QR= .9504453675164852   TP= 2459849.8468729327
   OM= 272.9082949425261   W=  89.75681904433419   IN= 17.02831311150554
   A= 1.024271445447318    MA= 104.2563453081307   ADIST= 1.098097523378151
   PER= 1.03665            N= .950783148           ANGMOM= .017364327
   DAN= 1.01864            DDN= 1.01926            L= 2.6539643
   B= 17.0281551           MOID= .00196974         TP= 2022-Sep-27.3468729327
 
Asteroid physical parameters (km, seconds, rotational period in hours):
   GM= n.a.                RAD= n.a.               ROTPER= n.a.
   H= 24.36                G= .150                 B-V= n.a.
                           ALBEDO= n.a.            STYP= n.a.

ASTEROID comments: 
1: soln ref.= JPL#5, OCC=7
2: source=ORB
*******************************************************************************


*******************************************************************************
Ephemeris / WWW_USER Wed Sep 17 16:41:30 2025 Pasadena, USA      / Horizons    
*******************************************************************************
Target body name: (2022 YK6)                      {source: JPL#5}
Center body name: Earth (399)                     {source: DE441}
Center-site name: Cerro Tololo Observatory, La Serena
*******************************************************************************
Start time      : A.D. 2024-Sep-05 00:00:00.0000 UT      
Stop  time      : A.D. 2024-Sep-09 23:00:00.0000 UT      
Step-size       : 45 minutes
*******************************************************************************
Target pole/equ : undefined
Target radii    : undefined                                                    
Center geodetic : 289.1941, -30.1691165, 2.38888  {E-lon(deg),Lat(deg),Alt(km)}
Center cylindric: 289.1941,5520.92438,-3187.79599 {E-lon(deg),Dxy(km),Dz(km)}
Center pole/equ : ITRF93                          {East-longitude positive}
Center radii    : 6378.137, 6378.137, 6356.752 km {Equator_a, b, pole_c}       
Target primary  : Sun
Vis. interferer : MOON (R_eq= 1737.400) km        {source: DE441}
Rel. light bend : Sun                             {source: DE441}
Rel. lght bnd GM: 1.3271E+11 km^3/s^2                                          
Small-body perts: Yes                             {source: SB441-N16}
Atmos refraction: NO (AIRLESS)
RA format       : DEG
Time format     : JD  
Calendar mode   : Mixed Julian/Gregorian
EOP file        : eop.250917.p251213                                           
EOP coverage    : DATA-BASED 1962-JAN-20 TO 2025-SEP-17. PREDICTS-> 2025-DEC-12
Units conversion: 1 au= 149597870.700 km, c= 299792.458 km/s, 1 day= 86400.0 s 
Table cut-offs 1: Elevation (-90.0deg=NO ),Airmass (>38.000=NO), Daylight (NO )
Table cut-offs 2: Solar elongation (  0.0,180.0=NO ),Local Hour Angle( 0.0=NO )
Table cut-offs 3: RA/DEC angular rate (     0.0=NO )                           
Table format    : Comma Separated Values (spreadsheet)
*******************************************************************************
Initial IAU76/J2000 heliocentric ecliptic osculating elements (au, days, deg.):
  EPOCH=  2459959.5 ! 2023-Jan-15.00 (TDB)         Residual RMS= .15137        
   EC= .07207667289659908  QR= .9504453675164852   TP= 2459849.8468729327      
   OM= 272.9082949425261   W=  89.75681904433419   IN= 17.02831311150554       
  Equivalent ICRF heliocentric cartesian coordinates (au, au/d):
   X=-4.210625291055425E-01  Y= 9.189115459676549E-01  Z= 2.741464597332479E-01
  VX=-1.484337286259445E-02 VY=-3.540213735124380E-03 VZ=-6.582821339768713E-03
Asteroid physical parameters (km, seconds, rotational period in hours):        
   GM= n.a.                RAD= n.a.               ROTPER= n.a.                
   H= 24.36                G= .150                 B-V= n.a.                   
                           ALBEDO= n.a.            STYP= n.a.                  
***********************************************************************************
Date_________JDUT, , , R.A.___(ICRF), DEC____(ICRF),             delta,     deldot,
***********************************************************************************
$$SOE
2460562.500000000, ,m, 236.602258098,  -1.187099061,  0.59985685942664, -0.3705771,
2460562.531250000, ,m, 236.629301413,  -1.181112673,  0.59985066026900, -0.3181800,
2460562.562500000, ,m, 236.656449828,  -1.175123934,  0.59984529977085, -0.2779617,
2460562.593750000, ,m, 236.683717557,  -1.169133387,  0.59984054274377, -0.2515404,
2460562.625000000, ,m, 236.711114155,  -1.163141608,  0.59983612950212, -0.2400036,
2460562.656250000, ,m, 236.738644151,  -1.157149180,  0.59983178585013, -0.2438664,
2460562.687500000, , , 236.766306874,  -1.151156675,  0.59982723362556, -0.2630518,
2460562.718750000, , , 236.794096482,  -1.145164630,  0.59982220139442, -0.2968936,
2460562.750000000, , , 236.822002184,  -1.139173524,  0.59981643488571, -0.3441625,
2460562.781250000, , , 236.850008654,  -1.133183765,  0.59980970676498, -0.4031129,
2460562.812500000, , , 236.878096628,  -1.127195672,  0.59980182537140, -0.4715502,
2460562.843750000, , , 236.906243634,  -1.121209464,  0.59979264208307, -0.5469154,
2460562.875000000, , , 236.934424864,  -1.115225252,  0.59978205702759, -0.6263834,
2460562.906250000,A, , 236.962614126,  -1.109243037,  0.59977002291926, -0.7069712,
2460562.937500000,C, , 236.990784844,  -1.103262711,  0.59975654687533, -0.7856530,
2460562.968750000,*, , 237.018911089,  -1.097284061,  0.59974169014199, -0.8594764,
2460563.000000000,*, , 237.046968567,  -1.091306779,  0.59972556574027, -0.9256754,
2460563.031250000,*, , 237.074935558,  -1.085330476,  0.59970833412245, -0.9817772,
2460563.062500000,*, , 237.102793750,  -1.079354696,  0.59969019700524, -1.0256972,
2460563.093750000,*,m, 237.130528940,  -1.073378936,  0.59967138961648, -1.0558188,
2460563.125000000,*,m, 237.158131586,  -1.067402663,  0.59965217165288, -1.0710561,
2460563.156250000,*,m, 237.185597171,  -1.061425338,  0.59963281729589, -1.0708951,
2460563.187500000,*,m, 237.212926377,  -1.055446439,  0.59961360466928, -1.0554144,
2460563.218750000,*,m, 237.240125064,  -1.049465472,  0.59959480514355, -1.0252815,
2460563.250000000,*,m, 237.267204041,  -1.043482001,  0.59957667289857, -0.9817274,
2460563.281250000,*,m, 237.294178654,  -1.037495658,  0.59955943514594, -0.9264997,
2460563.312500000,*,m, 237.321068194,  -1.031506155,  0.59954328338750, -0.8617948,
2460563.343750000,*,m, 237.347895158,  -1.025513301,  0.59952836604675, -0.7901742,
2460563.375000000,*,m, 237.374684381,  -1.019517003,  0.59951478275705, -0.7144652,
2460563.406250000,*,m, 237.401462085,  -1.013517269,  0.59950258052678, -0.6376527,
2460563.437500000,*,m, 237.428254863,  -1.007514211,  0.59949175192931, -0.5627639,
